SKIF-D                  
1 54153U 22139D   26064.33032369  .00000028  00000+0  00000+0 0  9990
2 54153  89.9564  96.7050 0007356 235.9207 124.0815  5.00429369 58919
MATS                    
1 54227U 22147A   26064.52976002  .00005132  00000+0  36907-3 0  9993
2 54227  97.6837  66.6287 0012402 182.2585 177.8587 15.04626343182173
JILIN-1 GAOFEN 03D54    
1 54254U 22155D   26064.77188027  .00099858  00000+0  91720-3 0  9993
2 54254  97.6024 207.2262 0002356 337.8822  22.2336 15.67393285183975
EOS-6 (OCEANSAT-3)      
1 54361U 22158A   26064.78490646  .00000543  00000+0  16140-3 0  9995
2 54361  98.3489 164.3871 0000136  48.1470 311.9734 14.47001627172882
DONGPO 09               
1 54685U 22167D   26064.77068579  .00017021  00000+0  52252-3 0  9992
2 54685  97.6797 231.4022 0003600 126.6009 233.5564 15.33805181179585
DONGPO 08               
1 54686U 22167E   26064.77519471  .00015694  00000+0  51904-3 0  9992
2 54686  97.6753 229.0562 0009059 167.9249 192.2210 15.31404066179481
2022-167F               
1 54687U 22167F   26064.72910750  .00088393  00000+0  80377-3 0  9995
2 54687  97.6214 242.1165 0001713  49.5246 310.6163 15.67681650180514
DONGPO 10               
1 54689U 22167H   26064.76821382  .00015617  00000+0  50519-3 0  9997
2 54689  97.6839 230.7595 0006143 119.6762 240.5092 15.32137975179511
JILIN-1 GAOFEN 03D48    
1 54695U 22167P   26064.74897675  .00017265  00000+0  54656-3 0  9997
2 54695  97.6770 230.0939 0007507 124.5294 235.6657 15.32799406179534
STAR VIBE               
1 55009U 23001A   26064.74039966  .00018112  00000+0  46092-3 0  9993
2 55009  97.3296 128.9464 0007489 123.0879 237.1087 15.39613905176294
BRO-8                   
1 55011U 23001C   26064.74650506  .00030318  00000+0  69055-3 0  9991
2 55011  97.3349 128.8478 0007765 133.6727 226.5165 15.42863724176228
CONNECTA T1.2           
1 55012U 23001D   26064.63974727  .00020144  00000+0  43871-3 0  9998
2 55012  97.3393 133.9484 0008086 115.7631 244.4453 15.44278259176532
BIRKELAND               
1 55015U 23001G   26064.70879448  .00011339  00000+0  30419-3 0  9993
2 55015  97.3452 132.5102 0008622 115.2800 244.9339 15.38089520176433
ION SCV-008             
1 55051U 23001AU  26064.76194574  .00009371  00000+0  35360-3 0  9992
2 55051  97.5690 159.4861 0015565  22.7299 337.4626 15.27148245175543
ION SCV-007             
1 55060U 23001BD  26064.71737191  .00000741  00000+0  11115-3 0  9999
2 55060  97.9129 129.7358 0011300 314.7875  45.2415 14.77446563170972
HUYGENS                 
1 55093U 23001CN  26064.70885009  .00011603  00000+0  31099-3 0  9998
2 55093  97.3363 131.8702 0011500  97.5896 262.6656 15.38082966176452
SHARJAHSAT-1            
1 55104U 23001CZ  26064.75878458  .00023409  00000+0  49543-3 0  9996
2 55104  97.3295 132.3311 0007648 117.1256 243.0774 15.45097579176502
