[{"OBJECT_NAME":"SKIF-D","OBJECT_ID":"2022-139D","EPOCH":"2026-03-05T07:55:39.966816","MEAN_MOTION":5.00429369,"ECCENTRICITY":0.0007356,"INCLINATION":89.9564,"RA_OF_ASC_NODE":96.705,"ARG_OF_PERICENTER":235.9207,"MEAN_ANOMALY":124.0815,"EPHEMERIS_TYPE":0,"CLASSIFICATION_TYPE":"U","NORAD_CAT_ID":54153,"ELEMENT_SET_NO":999,"REV_AT_EPOCH":5891,"BSTAR":0,"MEAN_MOTION_DOT":2.8e-7,"MEAN_MOTION_DDOT":0},{"OBJECT_NAME":"MATS","OBJECT_ID":"2022-147A","EPOCH":"2026-03-05T12:42:51.265728","MEAN_MOTION":15.04626343,"ECCENTRICITY":0.0012402,"INCLINATION":97.6837,"RA_OF_ASC_NODE":66.6287,"ARG_OF_PERICENTER":182.2585,"MEAN_ANOMALY":177.8587,"EPHEMERIS_TYPE":0,"CLASSIFICATION_TYPE":"U","NORAD_CAT_ID":54227,"ELEMENT_SET_NO":999,"REV_AT_EPOCH":18217,"BSTAR":0.00036907,"MEAN_MOTION_DOT":5.132e-5,"MEAN_MOTION_DDOT":0},{"OBJECT_NAME":"JILIN-1 GAOFEN 03D54","OBJECT_ID":"2022-155D","EPOCH":"2026-03-05T18:31:30.455328","MEAN_MOTION":15.67393285,"ECCENTRICITY":0.0002356,"INCLINATION":97.6024,"RA_OF_ASC_NODE":207.2262,"ARG_OF_PERICENTER":337.8822,"MEAN_ANOMALY":22.2336,"EPHEMERIS_TYPE":0,"CLASSIFICATION_TYPE":"U","NORAD_CAT_ID":54254,"ELEMENT_SET_NO":999,"REV_AT_EPOCH":18397,"BSTAR":0.0009172,"MEAN_MOTION_DOT":0.00099858,"MEAN_MOTION_DDOT":0},{"OBJECT_NAME":"EOS-6 (OCEANSAT-3)","OBJECT_ID":"2022-158A","EPOCH":"2026-03-05T18:50:15.918144","MEAN_MOTION":14.47001627,"ECCENTRICITY":1.36e-5,"INCLINATION":98.3489,"RA_OF_ASC_NODE":164.3871,"ARG_OF_PERICENTER":48.147,"MEAN_ANOMALY":311.9734,"EPHEMERIS_TYPE":0,"CLASSIFICATION_TYPE":"U","NORAD_CAT_ID":54361,"ELEMENT_SET_NO":999,"REV_AT_EPOCH":17288,"BSTAR":0.0001614,"MEAN_MOTION_DOT":5.43e-6,"MEAN_MOTION_DDOT":0},{"OBJECT_NAME":"DONGPO 09","OBJECT_ID":"2022-167D","EPOCH":"2026-03-05T18:29:47.252256","MEAN_MOTION":15.33805181,"ECCENTRICITY":0.00036,"INCLINATION":97.6797,"RA_OF_ASC_NODE":231.4022,"ARG_OF_PERICENTER":126.6009,"MEAN_ANOMALY":233.5564,"EPHEMERIS_TYPE":0,"CLASSIFICATION_TYPE":"U","NORAD_CAT_ID":54685,"ELEMENT_SET_NO":999,"REV_AT_EPOCH":17958,"BSTAR":0.00052252,"MEAN_MOTION_DOT":0.00017021,"MEAN_MOTION_DDOT":0},{"OBJECT_NAME":"DONGPO 08","OBJECT_ID":"2022-167E","EPOCH":"2026-03-05T18:36:16.822944","MEAN_MOTION":15.31404066,"ECCENTRICITY":0.0009059,"INCLINATION":97.6753,"RA_OF_ASC_NODE":229.0562,"ARG_OF_PERICENTER":167.9249,"MEAN_ANOMALY":192.221,"EPHEMERIS_TYPE":0,"CLASSIFICATION_TYPE":"U","NORAD_CAT_ID":54686,"ELEMENT_SET_NO":999,"REV_AT_EPOCH":17948,"BSTAR":0.00051904,"MEAN_MOTION_DOT":0.00015694,"MEAN_MOTION_DDOT":0},{"OBJECT_NAME":"2022-167F","OBJECT_ID":"2022-167F","EPOCH":"2026-03-05T17:29:54.888000","MEAN_MOTION":15.6768165,"ECCENTRICITY":0.0001713,"INCLINATION":97.6214,"RA_OF_ASC_NODE":242.1165,"ARG_OF_PERICENTER":49.5246,"MEAN_ANOMALY":310.6163,"EPHEMERIS_TYPE":0,"CLASSIFICATION_TYPE":"U","NORAD_CAT_ID":54687,"ELEMENT_SET_NO":999,"REV_AT_EPOCH":18051,"BSTAR":0.00080377,"MEAN_MOTION_DOT":0.00088393,"MEAN_MOTION_DDOT":0},{"OBJECT_NAME":"DONGPO 10","OBJECT_ID":"2022-167H","EPOCH":"2026-03-05T18:26:13.674048","MEAN_MOTION":15.32137975,"ECCENTRICITY":0.0006143,"INCLINATION":97.6839,"RA_OF_ASC_NODE":230.7595,"ARG_OF_PERICENTER":119.6762,"MEAN_ANOMALY":240.5092,"EPHEMERIS_TYPE":0,"CLASSIFICATION_TYPE":"U","NORAD_CAT_ID":54689,"ELEMENT_SET_NO":999,"REV_AT_EPOCH":17951,"BSTAR":0.00050519,"MEAN_MOTION_DOT":0.00015617,"MEAN_MOTION_DDOT":0},{"OBJECT_NAME":"JILIN-1 GAOFEN 03D48","OBJECT_ID":"2022-167P","EPOCH":"2026-03-05T17:58:31.591200","MEAN_MOTION":15.32799406,"ECCENTRICITY":0.0007507,"INCLINATION":97.677,"RA_OF_ASC_NODE":230.0939,"ARG_OF_PERICENTER":124.5294,"MEAN_ANOMALY":235.6657,"EPHEMERIS_TYPE":0,"CLASSIFICATION_TYPE":"U","NORAD_CAT_ID":54695,"ELEMENT_SET_NO":999,"REV_AT_EPOCH":17953,"BSTAR":0.00054656,"MEAN_MOTION_DOT":0.00017265,"MEAN_MOTION_DDOT":0},{"OBJECT_NAME":"STAR VIBE","OBJECT_ID":"2023-001A","EPOCH":"2026-03-05T17:46:10.530624","MEAN_MOTION":15.39613905,"ECCENTRICITY":0.0007489,"INCLINATION":97.3296,"RA_OF_ASC_NODE":128.9464,"ARG_OF_PERICENTER":123.0879,"MEAN_ANOMALY":237.1087,"EPHEMERIS_TYPE":0,"CLASSIFICATION_TYPE":"U","NORAD_CAT_ID":55009,"ELEMENT_SET_NO":999,"REV_AT_EPOCH":17629,"BSTAR":0.00046092,"MEAN_MOTION_DOT":0.00018112,"MEAN_MOTION_DDOT":0},{"OBJECT_NAME":"BRO-8","OBJECT_ID":"2023-001C","EPOCH":"2026-03-05T17:54:58.037184","MEAN_MOTION":15.42863724,"ECCENTRICITY":0.0007765,"INCLINATION":97.3349,"RA_OF_ASC_NODE":128.8478,"ARG_OF_PERICENTER":133.6727,"MEAN_ANOMALY":226.5165,"EPHEMERIS_TYPE":0,"CLASSIFICATION_TYPE":"U","NORAD_CAT_ID":55011,"ELEMENT_SET_NO":999,"REV_AT_EPOCH":17622,"BSTAR":0.00069055,"MEAN_MOTION_DOT":0.00030318,"MEAN_MOTION_DDOT":0},{"OBJECT_NAME":"CONNECTA T1.2","OBJECT_ID":"2023-001D","EPOCH":"2026-03-05T15:21:14.164128","MEAN_MOTION":15.44278259,"ECCENTRICITY":0.0008086,"INCLINATION":97.3393,"RA_OF_ASC_NODE":133.9484,"ARG_OF_PERICENTER":115.7631,"MEAN_ANOMALY":244.4453,"EPHEMERIS_TYPE":0,"CLASSIFICATION_TYPE":"U","NORAD_CAT_ID":55012,"ELEMENT_SET_NO":999,"REV_AT_EPOCH":17653,"BSTAR":0.00043871,"MEAN_MOTION_DOT":0.00020144,"MEAN_MOTION_DDOT":0},{"OBJECT_NAME":"BIRKELAND","OBJECT_ID":"2023-001G","EPOCH":"2026-03-05T17:00:39.843072","MEAN_MOTION":15.3808952,"ECCENTRICITY":0.0008622,"INCLINATION":97.3452,"RA_OF_ASC_NODE":132.5102,"ARG_OF_PERICENTER":115.28,"MEAN_ANOMALY":244.9339,"EPHEMERIS_TYPE":0,"CLASSIFICATION_TYPE":"U","NORAD_CAT_ID":55015,"ELEMENT_SET_NO":999,"REV_AT_EPOCH":17643,"BSTAR":0.00030419,"MEAN_MOTION_DOT":0.00011339,"MEAN_MOTION_DDOT":0},{"OBJECT_NAME":"ION SCV-008","OBJECT_ID":"2023-001AU","EPOCH":"2026-03-05T18:17:12.111936","MEAN_MOTION":15.27148245,"ECCENTRICITY":0.0015565,"INCLINATION":97.569,"RA_OF_ASC_NODE":159.4861,"ARG_OF_PERICENTER":22.7299,"MEAN_ANOMALY":337.4626,"EPHEMERIS_TYPE":0,"CLASSIFICATION_TYPE":"U","NORAD_CAT_ID":55051,"ELEMENT_SET_NO":999,"REV_AT_EPOCH":17554,"BSTAR":0.0003536,"MEAN_MOTION_DOT":9.371e-5,"MEAN_MOTION_DDOT":0},{"OBJECT_NAME":"ION SCV-007","OBJECT_ID":"2023-001BD","EPOCH":"2026-03-05T17:13:00.933024","MEAN_MOTION":14.77446563,"ECCENTRICITY":0.00113,"INCLINATION":97.9129,"RA_OF_ASC_NODE":129.7358,"ARG_OF_PERICENTER":314.7875,"MEAN_ANOMALY":45.2415,"EPHEMERIS_TYPE":0,"CLASSIFICATION_TYPE":"U","NORAD_CAT_ID":55060,"ELEMENT_SET_NO":999,"REV_AT_EPOCH":17097,"BSTAR":0.00011115,"MEAN_MOTION_DOT":7.41e-6,"MEAN_MOTION_DDOT":0},{"OBJECT_NAME":"HUYGENS","OBJECT_ID":"2023-001CN","EPOCH":"2026-03-05T17:00:44.647776","MEAN_MOTION":15.38082966,"ECCENTRICITY":0.00115,"INCLINATION":97.3363,"RA_OF_ASC_NODE":131.8702,"ARG_OF_PERICENTER":97.5896,"MEAN_ANOMALY":262.6656,"EPHEMERIS_TYPE":0,"CLASSIFICATION_TYPE":"U","NORAD_CAT_ID":55093,"ELEMENT_SET_NO":999,"REV_AT_EPOCH":17645,"BSTAR":0.00031099,"MEAN_MOTION_DOT":0.00011603,"MEAN_MOTION_DDOT":0},{"OBJECT_NAME":"SHARJAHSAT-1","OBJECT_ID":"2023-001CZ","EPOCH":"2026-03-05T18:12:38.987712","MEAN_MOTION":15.45097579,"ECCENTRICITY":0.0007648,"INCLINATION":97.3295,"RA_OF_ASC_NODE":132.3311,"ARG_OF_PERICENTER":117.1256,"MEAN_ANOMALY":243.0774,"EPHEMERIS_TYPE":0,"CLASSIFICATION_TYPE":"U","NORAD_CAT_ID":55104,"ELEMENT_SET_NO":999,"REV_AT_EPOCH":17650,"BSTAR":0.00049543,"MEAN_MOTION_DOT":0.00023409,"MEAN_MOTION_DDOT":0}]
